YAOGAN-43 01D           
1 60461U 24148D   26068.43560480  .00010676  00000+0  37766-3 0  9999
2 60461  35.0010  61.7102 0002556 326.2473  33.8080 15.28369377 87008
STARLINK-32470          
1 62115U 24222B   26067.59511679  .00042702  00000+0  15506-2 0  9994
2 62115  43.0014 142.1928 0001081 239.1347 120.9398 15.27617045 72734
